ONEWEB-0228             
1 48780U 21045P   23330.85020376  .00000157  00000+0  38302-3 0  9992
2 48780  87.8993  84.9880 0001421 104.5567 255.5721 13.15548011121613
